NORAD_CAT_ID,OBJECT_NAME,OBJECT_TYPE,EPOCH,MEAN_MOTION,ECCENTRICITY,INCLINATION,RA_OF_ASC_NODE,ARG_OF_PERICENTER,MEAN_ANOMALY,BSTAR,MEAN_MOTION_DOT,MEAN_MOTION_DDOT,TLE_LINE0,TLE_LINE1,TLE_LINE2,SEMIMAJOR_AXIS,PERIOD,APOGEE,PERIGEE,DECAYED
54180.0,STARLINK-5228,PAYLOAD,2023-06-15 06:15:52,15.08839648,0.0001087,53.2154,165.8988,78.5135,281.5979,3.5839e-05,2.83e-06,0.0,0 STARLINK-5228,1 54180U 22141Z   23166.26102326  .00000283  00000-0  35839-4 0  9993,2 54180  53.2154 165.8988 0001087  78.5135 281.5979 15.08839648 35135,6917.881,95.438,540.498,538.994,0.0
54180.0,STARLINK-5228,PAYLOAD,2023-06-15 17:23:34,15.08840041,0.0001098,53.2153,163.8173,77.6249,282.4866,3.2543e-05,2.3e-06,0.0,0 STARLINK-5228,1 54180U 22141Z   23166.72470304  .00000230  00000-0  32543-4 0  9999,2 54180  53.2153 163.8173 0001098  77.6249 282.4866 15.08840041 35208,6917.88,95.438,540.505,538.986,0.0
54180.0,STARLINK-5228,PAYLOAD,2023-06-16 06:06:39,15.08842209,0.0001109,53.2154,161.4384,77.827,282.2846,4.4889e-05,4.27e-06,0.0,0 STARLINK-5228,1 54180U 22141Z   23167.25462100  .00000427  00000-0  44889-4 0  9997,2 54180  53.2154 161.4384 0001109  77.8270 282.2846 15.08842209 35514,6917.874,95.437,540.506,538.971,0.0
54180.0,STARLINK-5228,PAYLOAD,2023-06-16 17:14:21,15.08841452,0.0001114,53.2151,159.3564,79.2297,280.882,4.1958e-05,3.8e-06,0.0,0 STARLINK-5228,1 54180U 22141Z   23167.71830065  .00000380  00000-0  41958-4 0  9999,2 54180  53.2151 159.3564 0001114  79.2297 280.8820 15.08841452 35355,6917.876,95.437,540.512,538.97,0.0
54180.0,STARLINK-5228,PAYLOAD,2023-06-17 05:57:26,15.08840696,0.0001142,53.2152,156.9777,80.7164,279.3957,3.5402e-05,2.76e-06,0.0,0 STARLINK-5228,1 54180U 22141Z   23168.24822120  .00000276  00000-0  35402-4 0  9992,2 54180  53.2152 156.9777 0001142  80.7164 279.3957 15.08840696 35438,6917.878,95.438,540.533,538.953,0.0
54180.0,STARLINK-5228,PAYLOAD,2023-06-17 23:26:41,15.08833627,0.000117,53.2149,153.707,80.3486,279.7638,-3.8122e-05,-8.94e-06,0.0,0 STARLINK-5228,1 54180U 22141Z   23168.97686936 -.00000894  00000-0 -38122-4 0  9995,2 54180  53.2149 153.7070 0001170  80.3486 279.7638 15.08833627 35772,6917.9,95.438,540.574,538.955,0.0
54180.0,STARLINK-5228,PAYLOAD,2023-06-18 08:59:00,15.0883306,0.0001174,53.2151,151.9223,84.0272,276.0853,-2.5918e-05,-7e-06,0.0,0 STARLINK-5228,1 54180U 22141Z   23169.37431047 -.00000700  00000-0 -25918-4 0  9996,2 54180  53.2151 151.9223 0001174  84.0272 276.0853 15.08833060 35605,6917.902,95.438,540.579,538.954,0.0
54180.0,STARLINK-5228,PAYLOAD,2023-06-18 15:20:32,15.08837037,0.0001166,53.2155,150.7329,83.7785,276.3339,2.5395e-06,-2.47e-06,0.0,0 STARLINK-5228,1 54180U 22141Z   23169.63926765 -.00000247  00000-0  25395-5 0  9996,2 54180  53.2155 150.7329 0001166  83.7785 276.3339 15.08837037 35643,6917.889,95.438,540.561,538.948,0.0
54180.0,STARLINK-5228,PAYLOAD,2023-06-18 23:17:28,15.08838857,0.0001126,53.2153,149.2462,85.0025,275.1096,3.7662e-05,3.12e-06,0.0,0 STARLINK-5228,1 54180U 22141Z   23169.97046563  .00000312  00000-0  37662-4 0  9993,2 54180  53.2153 149.2462 0001126  85.0025 275.1096 15.08838857 35929,6917.884,95.438,540.528,538.97,0.0
54180.0,STARLINK-5228,PAYLOAD,2023-06-19 05:39:00,15.08842265,0.0001121,53.2152,148.0569,85.3353,274.7767,6.0385e-05,6.73e-06,0.0,0 STARLINK-5228,1 54180U 22141Z   23170.23542287  .00000673  00000-0  60385-4 0  9996,2 54180  53.2152 148.0569 0001121  85.3353 274.7767 15.08842265 35732,6917.873,95.437,540.514,538.963,0.0
54180.0,STARLINK-5228,PAYLOAD,2023-06-19 15:11:19,15.08836637,0.0001095,53.215,146.2733,86.974,273.1377,3.8827e-05,3.3e-06,0.0,0 STARLINK-5228,1 54180U 22141Z   23170.63286742  .00000330  00000-0  38827-4 0  9997,2 54180  53.2150 146.2733 0001095  86.9740 273.1377 15.08836637 35792,6917.891,95.438,540.513,538.998,0.0
54180.0,STARLINK-5228,PAYLOAD,2023-06-20 07:05:11,15.08834686,0.0001085,53.2153,143.2996,86.2836,273.828,5.5194e-05,5.91e-06,0.0,0 STARLINK-5228,1 54180U 22141Z   23171.29527012  .00000591  00000-0  55194-4 0  9993,2 54180  53.2153 143.2996 0001085  86.2836 273.8280 15.08834686 36121,6917.897,95.438,540.512,539.011,0.0
54180.0,STARLINK-5228,PAYLOAD,2023-06-20 21:23:39,15.08835029,0.0001083,53.2151,140.6231,87.9687,272.1429,2.0216e-05,3.4e-07,0.0,0 STARLINK-5228,1 54180U 22141Z   23171.89143255  .00000034  00000-0  20216-4 0  9991,2 54180  53.2151 140.6231 0001083  87.9687 272.1429 15.08835029 35984,6917.896,95.438,540.51,539.011,0.0
54180.0,STARLINK-5228,PAYLOAD,2023-06-21 06:55:58,15.08841263,0.000115,53.215,138.839,87.5083,272.6041,1.0893e-05,-1.14e-06,0.0,0 STARLINK-5228,1 54180U 22141Z   23172.28886965 -.00000114  00000-0  10893-4 0  9997,2 54180  53.2150 138.8390 0001150  87.5083 272.6041 15.08841263 36049,6917.877,95.437,540.537,538.946,0.0
54180.0,STARLINK-5228,PAYLOAD,2023-06-21 14:52:54,15.0883987,0.0001208,53.2155,137.3521,84.4537,275.6593,3.2577e-05,2.31e-06,0.0,0 STARLINK-5228,1 54180U 22141Z   23172.62006993  .00000231  00000-0  32577-4 0  9992,2 54180  53.2155 137.3521 0001208  84.4537 275.6593 15.08839870 36325,6917.881,95.438,540.581,538.91,0.0
54180.0,STARLINK-5228,PAYLOAD,2023-06-23 01:51:23,15.08839917,0.0001271,53.2155,130.8093,86.3192,273.7946,6.6777e-05,7.75e-06,0.0,0 STARLINK-5228,1 54180U 22141Z   23174.07735035  .00000775  00000-0  66777-4 0  9991,2 54180  53.2155 130.8093 0001271  86.3192 273.7946 15.08839917 36542,6917.881,95.438,540.625,538.866,0.0
54180.0,STARLINK-5228,PAYLOAD,2023-06-23 06:37:31,15.08847275,0.0001274,53.2155,129.9167,87.1762,272.9375,9.249e-05,1.185e-05,0.0,0 STARLINK-5228,1 54180U 22141Z   23174.27606469  .00001185  00000-0  92490-4 0  9998,2 54180  53.2155 129.9167 0001274  87.1762 272.9375 15.08847275 36574,6917.858,95.437,540.604,538.842,0.0
54180.0,STARLINK-5228,PAYLOAD,2023-06-23 14:34:28,15.08834372,0.0001535,53.2157,128.4305,86.4474,273.6693,-2.4208e-05,-6.73e-06,0.0,0 STARLINK-5228,1 54180U 22141Z   23174.60727752 -.00000673  00000-0 -24208-4 0  9999,2 54180  53.2157 128.4305 0001535  86.4474 273.6693 15.08834372 36627,6917.898,95.438,540.824,538.701,0.0
54180.0,STARLINK-5228,PAYLOAD,2023-06-24 06:28:19,15.08839482,0.0001221,53.2164,125.4552,95.7623,264.3508,1.5755e-05,-3.7e-07,0.0,0 STARLINK-5228,1 54180U 22141Z   23175.26967344 -.00000037  00000-0  15755-4 0  9995,2 54180  53.2164 125.4552 0001221  95.7623 264.3508 15.08839482 36727,6917.882,95.438,540.592,538.902,0.0
54180.0,STARLINK-5228,PAYLOAD,2023-06-25 06:19:06,15.08849631,0.0001166,53.2164,120.9943,117.5006,242.6104,-4.6175e-06,-3.61e-06,0.0,0 STARLINK-5228,1 54180U 22141Z   23176.26326705 -.00000361  00000-0 -46175-5 0  9998,2 54180  53.2164 120.9943 0001166 117.5006 242.6104 15.08849631 36871,6917.851,95.437,540.523,538.909,0.0
54180.0,STARLINK-5228,PAYLOAD,2023-06-26 02:59:07,15.0884444,0.0001052,53.2159,117.1307,98.2653,261.8458,9.3604e-05,1.202e-05,0.0,0 STARLINK-5228,1 54180U 22141Z   23177.12438962  .00001202  00000-0  93604-4 0  9994,2 54180  53.2159 117.1307 0001052  98.2653 261.8458 15.08844440 37008,6917.867,95.437,540.46,539.004,0.0
54180.0,STARLINK-5228,PAYLOAD,2023-06-26 12:31:26,15.08838576,0.000102,53.2161,115.3463,97.0778,263.0331,2.5798e-05,1.23e-06,0.0,0 STARLINK-5228,1 54180U 22141Z   23177.52183494  .00000123  00000-0  25798-4 0  9995,2 54180  53.2161 115.3463 0001020  97.0778 263.0331 15.08838576 37067,6917.885,95.438,540.455,539.044,0.0
54180.0,STARLINK-5228,PAYLOAD,2023-06-26 20:28:22,15.08835793,0.0001348,53.2159,113.86,106.522,253.5921,-6.729e-05,-1.359e-05,0.0,0 STARLINK-5228,1 54180U 22141Z   23177.85304198 -.00001359  00000-0 -67290-4 0  9994,2 54180  53.2159 113.8600 0001348 106.5220 253.5921 15.08835793 37114,6917.893,95.438,540.691,538.826,0.0
54180.0,STARLINK-5228,PAYLOAD,2023-06-28 04:16:05,15.08843146,0.0001054,53.2163,107.913,103.5465,256.5645,6.5105e-05,7.49e-06,0.0,0 STARLINK-5228,1 54180U 22141Z   23179.17783842  .00000749  00000-0  65105-4 0  9991,2 54180  53.2163 107.9130 0001054 103.5465 256.5645 15.08843146 37312,6917.871,95.437,540.465,539.007,0.0
54180.0,STARLINK-5228,PAYLOAD,2023-06-29 04:06:52,15.08837853,0.0001022,53.2165,103.452,91.4637,268.6472,0.00017419,2.485e-05,0.0,0 STARLINK-5228,1 54180U 22141Z   23180.17144305  .00002485  00000-0  17419-3 0  9991,2 54180  53.2165 103.4520 0001022  91.4637 268.6472 15.08837853 37465,6917.887,95.438,540.459,539.045,0.0
54180.0,STARLINK-5228,PAYLOAD,2023-06-30 11:54:35,15.08839468,0.0001225,53.2175,97.5026,92.3198,267.7935,3.0461e-05,1.97e-06,0.0,0 STARLINK-5228,1 54180U 22141Z   23181.49624539  .00000197  00000-0  30461-4 0  9990,2 54180  53.2175  97.5026 0001225  92.3198 267.7935 15.08839468 37667,6917.882,95.438,540.594,538.9,0.0
54180.0,STARLINK-5228,PAYLOAD,2023-07-01 18:06:55,15.0884172,0.000111,53.2172,91.8536,89.7733,270.3386,7.1626e-05,8.52e-06,0.0,0 STARLINK-5228,1 54180U 22141Z   23182.75480359  .00000852  00000-0  71626-4 0  9996,2 54180  53.2172  91.8536 0001110  89.7733 270.3386 15.08841720 37850,6917.875,95.437,540.508,538.972,0.0
54180.0,STARLINK-5228,PAYLOAD,2023-07-02 03:39:13,15.0881913,0.0001447,53.2173,90.0696,98.569,261.5466,0.00051603,7.93e-05,0.0,0 STARLINK-5228,1 54180U 22141Z   23183.15224510  .00007930  00000-0  51603-3 0  9992,2 54180  53.2173  90.0696 0001447  98.5690 261.5466 15.08819130 37910,6917.944,95.439,540.81,538.808,0.0
54180.0,STARLINK-5228,PAYLOAD,2023-07-03 03:30:01,15.0881952,0.0001303,53.2165,85.6078,95.0402,265.0739,0.000358,5.411e-05,0.0,0 STARLINK-5228,1 54180U 22141Z   23184.14584852  .00005411  00000-0  35800-3 0  9993,2 54180  53.2165  85.6078 0001303  95.0402 265.0739 15.08819520 38061,6917.943,95.439,540.709,538.907,0.0
54180.0,STARLINK-5228,PAYLOAD,2023-07-04 01:45:24,15.08845528,0.0001051,53.2167,81.4445,89.7079,270.4033,-1.558e-05,-5.36e-06,0.0,0 STARLINK-5228,1 54180U 22141Z   23185.07320255 -.00000536  00000-0 -15580-4 0  9990,2 54180  53.2167  81.4445 0001051  89.7079 270.4033 15.08845528 38205,6917.863,95.437,540.456,539.001,0.0
